[
  {
    "OBJECT_NAME": "STARLINK-31209",
    "OBJECT_ID": "24020H",
    "EPOCH": "2025-11-11T06:50:47.944032",
    "MEAN_MOTION": 15.3017528,
    "ECCENTRICITY": 0.0001362,
    "INCLINATION": 53.159,
    "RA_OF_ASC_NODE": 152.3447,
    "ARG_OF_PERICENTER": 95.5107,
    "MEAN_ANOMALY": 264.6049,
    "EPHEMERIS_TYPE": 0,
    "CLASSIFICATION_TYPE": "U",
    "NORAD_CAT_ID": 58883,
    "ELEMENT_SET_NO": 999,
    "REV_AT_EPOCH": 9994,
    "BSTAR": 7.451900000000001e-05,
    "MEAN_MOTION_DOT": 1.847e-05,
    "MEAN_MOTION_DDOT": 0.0,
    "TLE_LINE1": "1 58883U 24020H   25315.28527713  .00001847  00000+0  74519-4 0  9990",
    "TLE_LINE2": "2 58883  53.1590 152.3447 0001362  95.5107 264.6049 15.30175280 99946",
    "COMMENT": "Grouped by shell and plane from TLE"
  },
  {
    "OBJECT_NAME": "STARLINK-31320",
    "OBJECT_ID": "24020L",
    "EPOCH": "2025-11-10T23:05:06.276480",
    "MEAN_MOTION": 15.30188064,
    "ECCENTRICITY": 7.14e-05,
    "INCLINATION": 53.1594,
    "RA_OF_ASC_NODE": 153.8777,
    "ARG_OF_PERICENTER": 26.7932,
    "MEAN_ANOMALY": 333.3106,
    "EPHEMERIS_TYPE": 0,
    "CLASSIFICATION_TYPE": "U",
    "NORAD_CAT_ID": 58886,
    "ELEMENT_SET_NO": 999,
    "REV_AT_EPOCH": 9989,
    "BSTAR": 0.0,
    "MEAN_MOTION_DOT": -6.47e-06,
    "MEAN_MOTION_DDOT": 0.0,
    "TLE_LINE1": "1 58886U 24020L   25314.96187820 -.00000647  00000+0 -97327-5 0  9990",
    "TLE_LINE2": "2 58886  53.1594 153.8777 0000714  26.7932 333.3106 15.30188064 99893",
    "COMMENT": "Grouped by shell and plane from TLE"
  },
  {
    "OBJECT_NAME": "STARLINK-31321",
    "OBJECT_ID": "24020M",
    "EPOCH": "2025-11-10T20:01:32.237760",
    "MEAN_MOTION": 15.30193316,
    "ECCENTRICITY": 0.0001285,
    "INCLINATION": 53.1591,
    "RA_OF_ASC_NODE": 154.5054,
    "ARG_OF_PERICENTER": 72.6103,
    "MEAN_ANOMALY": 287.5038,
    "EPHEMERIS_TYPE": 0,
    "CLASSIFICATION_TYPE": "U",
    "NORAD_CAT_ID": 58887,
    "ELEMENT_SET_NO": 999,
    "REV_AT_EPOCH": 10103,
    "BSTAR": 8.003900000000001e-05,
    "MEAN_MOTION_DOT": 2.012e-05,
    "MEAN_MOTION_DDOT": 0.0,
    "TLE_LINE1": "1 58887U 24020M   25314.83440090  .00002012  00000+0  80039-4 0  9995",
    "TLE_LINE2": "2 58887  53.1591 154.5054 0001285  72.6103 287.5038 15.30193316101031",
    "COMMENT": "Grouped by shell and plane from TLE"
  },
  {
    "OBJECT_NAME": "STARLINK-31007",
    "OBJECT_ID": "24020P",
    "EPOCH": "2025-11-10T23:14:12.813504",
    "MEAN_MOTION": 15.30176088,
    "ECCENTRICITY": 0.000188,
    "INCLINATION": 53.159,
    "RA_OF_ASC_NODE": 153.9185,
    "ARG_OF_PERICENTER": 81.4864,
    "MEAN_ANOMALY": 278.635,
    "EPHEMERIS_TYPE": 0,
    "CLASSIFICATION_TYPE": "U",
    "NORAD_CAT_ID": 58889,
    "ELEMENT_SET_NO": 999,
    "REV_AT_EPOCH": 9989,
    "BSTAR": 0.00017206,
    "MEAN_MOTION_DOT": 4.736e-05,
    "MEAN_MOTION_DDOT": 0.0,
    "TLE_LINE1": "1 58889U 24020P   25314.96820386  .00004736  00000+0  17206-3 0  9991",
    "TLE_LINE2": "2 58889  53.1590 153.9185 0001880  81.4864 278.6350 15.30176088 99898",
    "COMMENT": "Grouped by shell and plane from TLE"
  },
  {
    "OBJECT_NAME": "STARLINK-31230",
    "OBJECT_ID": "24020Q",
    "EPOCH": "2025-11-10T23:01:14.351232",
    "MEAN_MOTION": 15.30238258,
    "ECCENTRICITY": 0.0001578,
    "INCLINATION": 53.1565,
    "RA_OF_ASC_NODE": 151.7591,
    "ARG_OF_PERICENTER": 94.1751,
    "MEAN_ANOMALY": 265.943,
    "EPHEMERIS_TYPE": 0,
    "CLASSIFICATION_TYPE": "U",
    "NORAD_CAT_ID": 58890,
    "ELEMENT_SET_NO": 999,
    "REV_AT_EPOCH": 9992,
    "BSTAR": 0.00020674000000000002,
    "MEAN_MOTION_DOT": 5.775e-05,
    "MEAN_MOTION_DDOT": 0.0,
    "TLE_LINE1": "1 58890U 24020Q   25314.95919388  .00005775  00000+0  20674-3 0  9990",
    "TLE_LINE2": "2 58890  53.1565 151.7591 0001578  94.1751 265.9430 15.30238258 99929",
    "COMMENT": "Grouped by shell and plane from TLE"
  },
  {
    "OBJECT_NAME": "STARLINK-31254",
    "OBJECT_ID": "24020S",
    "EPOCH": "2025-11-11T06:29:52.394784",
    "MEAN_MOTION": 15.46319809,
    "ECCENTRICITY": 0.0009711,
    "INCLINATION": 53.1538,
    "RA_OF_ASC_NODE": 150.131,
    "ARG_OF_PERICENTER": 217.7003,
    "MEAN_ANOMALY": 142.3326,
    "EPHEMERIS_TYPE": 0,
    "CLASSIFICATION_TYPE": "U",
    "NORAD_CAT_ID": 58892,
    "ELEMENT_SET_NO": 999,
    "REV_AT_EPOCH": 9997,
    "BSTAR": 0.0009535500000000001,
    "MEAN_MOTION_DOT": 0.00047727,
    "MEAN_MOTION_DDOT": 0.0,
    "TLE_LINE1": "1 58892U 24020S   25315.27074531  .00047727  00000+0  95355-3 0  9991",
    "TLE_LINE2": "2 58892  53.1538 150.1310 0009711 217.7003 142.3326 15.46319809 99979",
    "COMMENT": "Grouped by shell and plane from TLE"
  },
  {
    "OBJECT_NAME": "STARLINK-31255",
    "OBJECT_ID": "24020T",
    "EPOCH": "2025-11-10T23:18:45.984384",
    "MEAN_MOTION": 15.30195081,
    "ECCENTRICITY": 0.0001416,
    "INCLINATION": 53.1611,
    "RA_OF_ASC_NODE": 153.9354,
    "ARG_OF_PERICENTER": 86.003,
    "MEAN_ANOMALY": 274.1133,
    "EPHEMERIS_TYPE": 0,
    "CLASSIFICATION_TYPE": "U",
    "NORAD_CAT_ID": 58893,
    "ELEMENT_SET_NO": 999,
    "REV_AT_EPOCH": 9989,
    "BSTAR": 0.0001344,
    "MEAN_MOTION_DOT": 3.623e-05,
    "MEAN_MOTION_DDOT": 0.0,
    "TLE_LINE1": "1 58893U 24020T   25314.97136556  .00003623  00000+0  13440-3 0  9996",
    "TLE_LINE2": "2 58893  53.1611 153.9354 0001416  86.0030 274.1133 15.30195081 99890",
    "COMMENT": "Grouped by shell and plane from TLE"
  },
  {
    "OBJECT_NAME": "STARLINK-31243",
    "OBJECT_ID": "24020U",
    "EPOCH": "2025-11-10T20:15:12.680064",
    "MEAN_MOTION": 15.30200671,
    "ECCENTRICITY": 0.0001424,
    "INCLINATION": 53.1596,
    "RA_OF_ASC_NODE": 154.5611,
    "ARG_OF_PERICENTER": 85.131,
    "MEAN_ANOMALY": 274.9853,
    "EPHEMERIS_TYPE": 0,
    "CLASSIFICATION_TYPE": "U",
    "NORAD_CAT_ID": 58894,
    "ELEMENT_SET_NO": 999,
    "REV_AT_EPOCH": 9987,
    "BSTAR": 6.1751e-05,
    "MEAN_MOTION_DOT": 1.47e-05,
    "MEAN_MOTION_DDOT": 0.0,
    "TLE_LINE1": "1 58894U 24020U   25314.84389676  .00001470  00000+0  61751-4 0  9993",
    "TLE_LINE2": "2 58894  53.1596 154.5611 0001424  85.1310 274.9853 15.30200671 99873",
    "COMMENT": "Grouped by shell and plane from TLE"
  },
  {
    "OBJECT_NAME": "STARLINK-31218",
    "OBJECT_ID": "24020V",
    "EPOCH": "2025-11-10T20:19:46.708896",
    "MEAN_MOTION": 15.30212306,
    "ECCENTRICITY": 0.0001192,
    "INCLINATION": 53.1605,
    "RA_OF_ASC_NODE": 154.5792,
    "ARG_OF_PERICENTER": 86.5358,
    "MEAN_ANOMALY": 273.5779,
    "EPHEMERIS_TYPE": 0,
    "CLASSIFICATION_TYPE": "U",
    "NORAD_CAT_ID": 58895,
    "ELEMENT_SET_NO": 999,
    "REV_AT_EPOCH": 9987,
    "BSTAR": 0.00010273,
    "MEAN_MOTION_DOT": 2.686e-05,
    "MEAN_MOTION_DDOT": 0.0,
    "TLE_LINE1": "1 58895U 24020V   25314.84706839  .00002686  00000+0  10273-3 0  9990",
    "TLE_LINE2": "2 58895  53.1605 154.5792 0001192  86.5358 273.5779 15.30212306 99874",
    "COMMENT": "Grouped by shell and plane from TLE"
  },
  {
    "OBJECT_NAME": "STARLINK-31190",
    "OBJECT_ID": "24020X",
    "EPOCH": "2025-11-11T05:54:43.977312",
    "MEAN_MOTION": 15.30198117,
    "ECCENTRICITY": 0.0001358,
    "INCLINATION": 53.1578,
    "RA_OF_ASC_NODE": 152.8062,
    "ARG_OF_PERICENTER": 97.062,
    "MEAN_ANOMALY": 263.0536,
    "EPHEMERIS_TYPE": 0,
    "CLASSIFICATION_TYPE": "U",
    "NORAD_CAT_ID": 58897,
    "ELEMENT_SET_NO": 999,
    "REV_AT_EPOCH": 9993,
    "BSTAR": 3.8604e-05,
    "MEAN_MOTION_DOT": 7.84e-06,
    "MEAN_MOTION_DDOT": 0.0,
    "TLE_LINE1": "1 58897U 24020X   25315.24634233  .00000784  00000+0  38604-4 0  9991",
    "TLE_LINE2": "2 58897  53.1578 152.8062 0001358  97.0620 263.0536 15.30198117 99934",
    "COMMENT": "Grouped by shell and plane from TLE"
  },
  {
    "OBJECT_NAME": "STARLINK-31562",
    "OBJECT_ID": "24057W",
    "EPOCH": "2025-11-11T06:13:34.023648",
    "MEAN_MOTION": 15.27622405,
    "ECCENTRICITY": 0.0001307,
    "INCLINATION": 43.0036,
    "RA_OF_ASC_NODE": 150.8904,
    "ARG_OF_PERICENTER": 288.2969,
    "MEAN_ANOMALY": 71.7741,
    "EPHEMERIS_TYPE": 0,
    "CLASSIFICATION_TYPE": "U",
    "NORAD_CAT_ID": 59340,
    "ELEMENT_SET_NO": 999,
    "REV_AT_EPOCH": 9155,
    "BSTAR": 0.0,
    "MEAN_MOTION_DOT": -3.528e-05,
    "MEAN_MOTION_DDOT": 0.0,
    "TLE_LINE1": "1 59340U 24057W   25315.25942157 -.00003528  00000+0 -11858-3 0  9995",
    "TLE_LINE2": "2 59340  43.0036 150.8904 0001307 288.2969  71.7741 15.27622405 91552",
    "COMMENT": "Grouped by shell and plane from TLE"
  },
  {
    "OBJECT_NAME": "STARLINK-31363",
    "OBJECT_ID": "24093A",
    "EPOCH": "2025-11-11T06:51:42.048576",
    "MEAN_MOTION": 15.27583819,
    "ECCENTRICITY": 0.000121,
    "INCLINATION": 43.0028,
    "RA_OF_ASC_NODE": 154.3725,
    "ARG_OF_PERICENTER": 255.7152,
    "MEAN_ANOMALY": 104.3566,
    "EPHEMERIS_TYPE": 0,
    "CLASSIFICATION_TYPE": "U",
    "NORAD_CAT_ID": 59782,
    "ELEMENT_SET_NO": 999,
    "REV_AT_EPOCH": 8462,
    "BSTAR": 7.8221e-05,
    "MEAN_MOTION_DOT": 1.891e-05,
    "MEAN_MOTION_DDOT": 0.0,
    "TLE_LINE1": "1 59782U 24093A   25315.28590334  .00001891  00000+0  78221-4 0  9991",
    "TLE_LINE2": "2 59782  43.0028 154.3725 0001210 255.7152 104.3566 15.27583819 84622",
    "COMMENT": "Grouped by shell and plane from TLE"
  },
  {
    "OBJECT_NAME": "STARLINK-31868",
    "OBJECT_ID": "24093B",
    "EPOCH": "2025-11-11T06:53:32.275968",
    "MEAN_MOTION": 15.27581683,
    "ECCENTRICITY": 0.0001268,
    "INCLINATION": 43.004,
    "RA_OF_ASC_NODE": 154.3482,
    "ARG_OF_PERICENTER": 291.8579,
    "MEAN_ANOMALY": 68.2138,
    "EPHEMERIS_TYPE": 0,
    "CLASSIFICATION_TYPE": "U",
    "NORAD_CAT_ID": 59783,
    "ELEMENT_SET_NO": 999,
    "REV_AT_EPOCH": 8462,
    "BSTAR": 6.6554e-05,
    "MEAN_MOTION_DOT": 1.57e-05,
    "MEAN_MOTION_DDOT": 0.0,
    "TLE_LINE1": "1 59783U 24093B   25315.28717912  .00001570  00000+0  66554-4 0  9995",
    "TLE_LINE2": "2 59783  43.0040 154.3482 0001268 291.8579  68.2138 15.27581683 84624",
    "COMMENT": "Grouped by shell and plane from TLE"
  }
]